{
"type": "FeatureCollection",
"name": "Jurisdictional_Limits",
"crs": { "type": "name", "properties": { "name": "urn:ogc:def:crs:OGC:1.3:CRS84" } },
"features": [
{ "type": "Feature", "id": 1, "properties": { "OBJECTID": 1, "Id": 0, "Shapearea": 767068266.08952188, "Shapelen": 149637.65068025296 }, "geometry": { "type": "Polygon", "coordinates": [ [ [ -79.074568429164643, 35.979306757711967 ], [ -79.074726177696661, 35.979463958918984 ], [ -79.074913963795154, 35.979577099566832 ], [ -79.074923826534146, 35.979652902840797 ], [ -79.074925615087878, 35.979729281575345 ], [ -79.075126632252406, 35.979802263570534 ], [ -79.075389922661401, 35.979818438821887 ], [ -79.075571780565028, 35.979721127042922 ], [ -79.075807560357589, 35.979636278673311 ], [ -79.075946035903058, 35.979626662512665 ], [ -79.076101778168635, 35.979615411331302 ], [ -79.07614254339056, 35.978586271407124 ], [ -79.076277840213663, 35.976892296668289 ], [ -79.076338027376323, 35.976199865561476 ], [ -79.07635261577488, 35.975544555874471 ], [ -79.07635247537911, 35.975396186186444 ], [ -79.076478628652296, 35.975395333049768 ], [ -79.077163500893349, 35.975390698664604 ], [ -79.079458323433897, 35.975441730364075 ], [ -79.081067060305912, 35.975471520317228 ], [ -79.081766660169251, 35.975484468582771 ], [ -79.084048806280748, 35.975526323180638 ], [ -79.084225818441254, 35.975529803649493 ], [ -79.084549848182874, 35.97553644300158 ], [ -79.084596837877768, 35.969608315208873 ], [ -79.08457097527473, 35.967911989828039 ], [ -79.084574136651, 35.967705096161339 ], [ -79.08453011448583, 35.96480691646984 ], [ -79.084777223647592, 35.964811549906408 ], [ -79.08503023444959, 35.964805875246178 ], [ -79.085699325452836, 35.964790711142179 ], [ -79.08570156710411, 35.964790659998279 ], [ -79.085843755658658, 35.964787437169008 ], [ -79.086050726009674, 35.964782823822333 ], [ -79.086483729411214, 35.964773043608353 ], [ -79.08664756059882, 35.964769343054911 ], [ -79.086661885208756, 35.964769016538405 ], [ -79.087324227279609, 35.964753913212462 ], [ -79.087848834186516, 35.964742024809226 ], [ -79.08812549827492, 35.964735811181058 ], [ -79.08825861916219, 35.964732795773863 ], [ -79.088368371243206, 35.96473030906521 ], [ -79.088735004837034, 35.964721968575958 ], [ -79.088736459145792, 35.964126871623904 ], [ -79.088740262784867, 35.964031977966442 ], [ -79.088352916057772, 35.963764804304205 ], [ -79.088081694887904, 35.963505411191804 ], [ -79.087936318214119, 35.963293123594909 ], [ -79.087819803831138, 35.962927418081733 ], [ -79.087708068702469, 35.962506643130283 ], [ -79.087572234289127, 35.962168483623373 ], [ -79.087509215229147, 35.962054465690564 ], [ -79.087305693051775, 35.961755688237574 ], [ -79.08687470364633, 35.961382345044193 ], [ -79.086182261946661, 35.960816459483738 ], [ -79.085751303649729, 35.960462778242331 ], [ -79.084259919795727, 35.959228801716094 ], [ -79.083843492978559, 35.958875102607763 ], [ -79.083460962898897, 35.958548911380667 ], [ -79.083044478336959, 35.9581322780341 ], [ -79.082970839646194, 35.958049273593637 ], [ -79.082782932373973, 35.957837467083145 ], [ -79.082707995245585, 35.957759040993061 ], [ -79.082414864476689, 35.957452263483987 ], [ -79.082114525210002, 35.957063079070174 ], [ -79.081925415818077, 35.956634485286941 ], [ -79.081871976692597, 35.956414259966166 ], [ -79.081789458957232, 35.95614292223231 ], [ -79.081643721066001, 35.955545168525326 ], [ -79.08143004767139, 35.954738998195836 ], [ -79.081264924107302, 35.954101924422055 ], [ -79.080857135690835, 35.952678363686857 ], [ -79.080648389817398, 35.951946920049359 ], [ -79.08036242220561, 35.951388590490247 ], [ -79.080149286475532, 35.951097673611834 ], [ -79.081038656659089, 35.950393018929304 ], [ -79.081541274736807, 35.94993248390815 ], [ -79.08215027076767, 35.949436475230662 ], [ -79.082401488043274, 35.949121640327903 ], [ -79.082628471861355, 35.948763556637736 ], [ -79.082715279781098, 35.948507834242967 ], [ -79.082753582054224, 35.948265987570117 ], [ -79.083075068846554, 35.947430072784236 ], [ -79.083178115407762, 35.947160247196187 ], [ -79.083074452864238, 35.947160041084921 ], [ -79.082307547872716, 35.947163149953468 ], [ -79.081453648237556, 35.947167857792884 ], [ -79.081459495273805, 35.946686932293481 ], [ -79.081468684432082, 35.946170121372525 ], [ -79.081493256985382, 35.944164691792608 ], [ -79.081545697024524, 35.942990252552157 ], [ -79.080823679237184, 35.941399463902876 ], [ -79.080196885760003, 35.93999438028726 ], [ -79.076793827162604, 35.940002292695667 ], [ -79.076308992265183, 35.939998245298483 ], [ -79.076305539502528, 35.93947023650491 ], [ -79.076296720254405, 35.939322029726377 ], [ -79.076236636774439, 35.938392658735765 ], [ -79.076185633078055, 35.937514273336596 ], [ -79.076137579551329, 35.936633485639923 ], [ -79.076089525964932, 35.935752697633667 ], [ -79.076047373684034, 35.934869505493083 ], [ -79.076026311450164, 35.93444230929056 ], [ -79.076013900087375, 35.934355023887498 ], [ -79.075975807139244, 35.934087133115675 ], [ -79.075821043788537, 35.93348014478061 ], [ -79.075789196866381, 35.933355236001645 ], [ -79.075431358860044, 35.932549045987656 ], [ -79.074998531877881, 35.931816110353424 ], [ -79.074574204834875, 35.931097554285031 ], [ -79.074059943732806, 35.930243456512969 ], [ -79.073805725541234, 35.929770803850957 ], [ -79.07371684934256, 35.929391650497294 ], [ -79.073687027705859, 35.929050861140375 ], [ -79.073736717594201, 35.928532417737529 ], [ -79.073827156643148, 35.927668268716907 ], [ -79.07393261744086, 35.926384945532398 ], [ -79.074053799355667, 35.925880072260121 ], [ -79.074166718969181, 35.925173980870596 ], [ -79.074175565894535, 35.925153200570954 ], [ -79.074185679702339, 35.925132761993822 ], [ -79.074193265094166, 35.925117475871907 ], [ -79.074197894517653, 35.925101504757329 ], [ -79.074199145942842, 35.925085021956242 ], [ -79.074198286414529, 35.925068539537129 ], [ -79.074196585704811, 35.925060362191061 ], [ -79.074194893901705, 35.92505222990448 ], [ -79.074189389646349, 35.925036264949938 ], [ -79.074182620405139, 35.925020817207795 ], [ -79.074175430083727, 35.925005368819853 ], [ -79.074169504911609, 35.924989576267933 ], [ -79.074161468315538, 35.924974472689236 ], [ -79.074132731495098, 35.924944099272146 ], [ -79.074115406110707, 35.924927112210781 ], [ -79.074100190578264, 35.924908921533998 ], [ -79.074093421521937, 35.924893645032782 ], [ -79.074089184816742, 35.924877508056625 ], [ -79.074087905450895, 35.924872015420277 ], [ -79.074086649511003, 35.924866692213769 ], [ -79.074085370145482, 35.92486119957735 ], [ -79.074080287956122, 35.92484506221259 ], [ -79.074081117369289, 35.924828750913946 ], [ -79.074085325402336, 35.924812436663068 ], [ -79.074096712375948, 35.924799209506851 ], [ -79.074106831039629, 35.924785295429039 ], [ -79.074113989660049, 35.924763829366647 ], [ -79.074116084522984, 35.924747516397531 ], [ -79.074112692198298, 35.924731378908518 ], [ -79.074106766901366, 35.924715415105368 ], [ -79.074104218798951, 35.924699104955309 ], [ -79.074105705266021, 35.924694815675259 ], [ -79.074109692750937, 35.924683305476819 ], [ -79.074120228862867, 35.924663038793014 ], [ -79.074122747018279, 35.924646725566092 ], [ -79.074120198758379, 35.924630245070638 ], [ -79.074113007689931, 35.924615139170626 ], [ -79.074096526283995, 35.924597636950686 ], [ -79.074083848828522, 35.924584766895649 ], [ -79.074072431483771, 35.924564857835392 ], [ -79.074066084176394, 35.924549065532098 ], [ -79.074068602497078, 35.92453292445348 ], [ -79.074072809409074, 35.924516610201955 ], [ -79.074073653176896, 35.924511116276086 ], [ -79.074074483802761, 35.924505791802325 ], [ -79.074075327569517, 35.924500296975154 ], [ -79.074074466965399, 35.924483815453527 ], [ -79.074076558847338, 35.924461836923349 ], [ -79.0740803426159, 35.924445694174644 ], [ -79.074089617342594, 35.924431094720497 ], [ -79.074102270979225, 35.924418037138302 ], [ -79.074102678826947, 35.924402412882301 ], [ -79.074095487309791, 35.9243867923389 ], [ -79.074084075819542, 35.924373236527487 ], [ -79.074077525541014, 35.924366887250734 ], [ -79.074070976371658, 35.924360537972888 ], [ -79.074055345698397, 35.92434990222236 ], [ -79.074039293630221, 35.924340125662859 ], [ -79.07401944818362, 35.924337220197529 ], [ -79.073998760409637, 35.924336545953317 ], [ -79.073978916537698, 35.924335356552696 ], [ -79.073959070149911, 35.924331419992605 ], [ -79.073940909522491, 35.924324219707607 ], [ -79.073913030592877, 35.924308269191251 ], [ -79.073903727326012, 35.924302602953915 ], [ -79.073896977442132, 35.924298492613559 ], [ -79.073881348068582, 35.924288028086451 ], [ -79.073866560071352, 35.924276705913215 ], [ -79.073853461782264, 35.924264008235482 ], [ -79.073836987569479, 35.924254231904591 ], [ -79.073819668979496, 35.924245658414257 ], [ -79.073800666375178, 35.924239832196342 ], [ -79.073767311163067, 35.92423710610521 ], [ -79.073747042769355, 35.924234542443209 ], [ -79.073721284726943, 35.924228206554652 ], [ -79.073702279917583, 35.924222380322711 ], [ -79.073683697465, 35.924215523648577 ], [ -79.073665115485952, 35.924209182514105 ], [ -79.073645690547778, 35.924204387612399 ], [ -79.073625844364642, 35.924200622244584 ], [ -79.07359924336599, 35.924197033095233 ], [ -79.073579398439335, 35.924194642199318 ], [ -79.073570964864885, 35.924193618000594 ], [ -79.073545619815533, 35.924190541822604 ], [ -79.073526195826247, 35.924186776184179 ], [ -79.07350677058831, 35.92418163696447 ], [ -79.073481432721763, 35.924174270587891 ], [ -79.073462005459291, 35.9241668997471 ], [ -79.073442579137364, 35.924160559086872 ], [ -79.07341345283595, 35.924166757715859 ], [ -79.073398266807601, 35.924179472454838 ], [ -79.073385190440078, 35.924192014676606 ], [ -79.07337506982222, 35.924206272093549 ], [ -79.073365796256681, 35.924221043641836 ], [ -79.073361718944369, 35.924227688662633 ], [ -79.073356521891611, 35.924236158584542 ], [ -79.073346824713838, 35.924250587892359 ], [ -79.073332480364201, 35.924261585143277 ], [ -79.07331391118602, 35.924269323131298 ], [ -79.073294917635948, 35.924274657608272 ], [ -79.073261143356007, 35.924275365577721 ], [ -79.073240876856048, 35.92427366076803 ], [ -79.073207525851657, 35.924275569899471 ], [ -79.073197394625623, 35.924276949555015 ], [ -79.073187263399177, 35.924278329209798 ], [ -79.073167424221225, 35.924282290595137 ], [ -79.073147583485834, 35.924284535004546 ], [ -79.073127737462087, 35.924280941703792 ], [ -79.073093960380234, 35.924278559076193 ], [ -79.072909014662699, 35.924323623765325 ], [ -79.072278858258755, 35.923694833614363 ], [ -79.071841856838006, 35.923242194434089 ], [ -79.071553052825607, 35.922957116531229 ], [ -79.071533122035916, 35.922937442945511 ], [ -79.071047083044419, 35.922474537595868 ], [ -79.0705784485328, 35.922011620170181 ], [ -79.068885482981869, 35.9203222850362 ], [ -79.068267396158177, 35.919705646629659 ], [ -79.068012061734194, 35.919402755005038 ], [ -79.067840595770392, 35.919053404668055 ], [ -79.067796680756572, 35.91871762983979 ], [ -79.06781317977412, 35.918381821398071 ], [ -79.067937076338893, 35.918045950467324 ], [ -79.0681415485559, 35.917742793977247 ], [ -79.068262862296621, 35.917621955496884 ], [ -79.068788746184879, 35.917098120727516 ], [ -79.068757298151723, 35.916926831799167 ], [ -79.068683847102534, 35.916459777536218 ], [ -79.068110222423613, 35.916520625913691 ], [ -79.068110211287404, 35.916520559223635 ], [ -79.068107697289051, 35.916504844640663 ], [ -79.068089028945451, 35.916388199662791 ], [ -79.068085944386468, 35.916368598986672 ], [ -79.068067839215345, 35.916253565211917 ], [ -79.068064631396695, 35.916232314320723 ], [ -79.068056931130911, 35.916181363555779 ], [ -79.068046126589678, 35.916109732362628 ], [ -79.068046100978322, 35.916109580958327 ], [ -79.068032553473259, 35.916027898178086 ], [ -79.068024940174098, 35.915978860821284 ], [ -79.067992798604635, 35.915773622697849 ], [ -79.067990533941128, 35.915759214856116 ], [ -79.067982557993403, 35.915707083526513 ], [ -79.067982513439603, 35.915706805049204 ], [ -79.06796687474808, 35.915608665652272 ], [ -79.067961370027433, 35.915574121837786 ], [ -79.067961317673138, 35.915573790188077 ], [ -79.06792729404907, 35.915356791081592 ], [ -79.067926175686651, 35.9153497155867 ], [ -79.067918008549455, 35.915298070152986 ], [ -79.067906497495471, 35.915225282046372 ], [ -79.067898024074381, 35.915171715204643 ], [ -79.067884853366721, 35.915088451287389 ], [ -79.067865753582566, 35.914966556373258 ], [ -79.067856842378006, 35.914911446738763 ], [ -79.067841139631938, 35.914811870657942 ], [ -79.067816097196797, 35.914650832793043 ], [ -79.067783843928083, 35.914447216919775 ], [ -79.067770262309551, 35.914361203324681 ], [ -79.067725699623566, 35.914078099428949 ], [ -79.067708295514933, 35.91396547609763 ], [ -79.067707876708809, 35.913962836416793 ], [ -79.067707864454022, 35.913962756207717 ], [ -79.067703629657771, 35.913936117876325 ], [ -79.067694297353384, 35.913868755243371 ], [ -79.067688763969727, 35.91382881531586 ], [ -79.067672206012375, 35.913715675955004 ], [ -79.067570899288228, 35.91372140038181 ], [ -79.067567955660166, 35.913721653475001 ], [ -79.067424009223686, 35.913734016037331 ], [ -79.067275849542028, 35.913746807969815 ], [ -79.067131066509305, 35.913756505497794 ], [ -79.067131011936951, 35.913756165736999 ], [ -79.067109002528326, 35.913620361551146 ], [ -79.067104755892146, 35.913592548805717 ], [ -79.067087782820337, 35.913481476270064 ], [ -79.067080565881525, 35.913435115457915 ], [ -79.06706698282423, 35.913348930506388 ], [ -79.067055948121777, 35.913276137499501 ], [ -79.067045339020709, 35.913208837692316 ], [ -79.067034827237634, 35.913141298082735 ], [ -79.067030920769724, 35.913116127760894 ], [ -79.067024120268655, 35.913072176792447 ], [ -79.067019425913486, 35.913042828465436 ], [ -79.067006720489559, 35.91296333067519 ], [ -79.067003326091623, 35.912942385374372 ], [ -79.066982106801134, 35.912806240900416 ], [ -79.066978285906984, 35.912781347226606 ], [ -79.066977750113637, 35.912777883816105 ], [ -79.066961295568063, 35.912671750081707 ], [ -79.066960464540983, 35.912666320191363 ], [ -79.066960363192194, 35.91266568573019 ], [ -79.066939241786073, 35.912529831400548 ], [ -79.06693589378142, 35.912530060365278 ], [ -79.066681341247516, 35.912547486710039 ], [ -79.066669003365433, 35.912437611174283 ], [ -79.066667896218945, 35.912427834450959 ], [ -79.066656673152536, 35.912328932558275 ], [ -79.066649482632144, 35.912263145014109 ], [ -79.066634979946912, 35.912130461384109 ], [ -79.066323041897419, 35.912143686692751 ], [ -79.066294607311264, 35.911959470504605 ], [ -79.066264901138112, 35.911768730458434 ], [ -79.066208460215407, 35.91140561994564 ], [ -79.066104625258234, 35.911413405812624 ], [ -79.065930722164609, 35.911427067207235 ], [ -79.065930706388727, 35.911426742746805 ], [ -79.06593051967954, 35.911424677963169 ], [ -79.065900880573892, 35.911069093078382 ], [ -79.065896447193367, 35.911007267900629 ], [ -79.065803816190652, 35.911015291715117 ], [ -79.065594271570191, 35.910629965953447 ], [ -79.065414814756778, 35.910315074008153 ], [ -79.065321719298225, 35.910149295826322 ], [ -79.065237492466139, 35.909999312667075 ], [ -79.064944729929806, 35.909382506013721 ], [ -79.064800476274058, 35.90906499041607 ], [ -79.064649824594241, 35.908747478001416 ], [ -79.064536503710031, 35.908506939492653 ], [ -79.064500239881895, 35.908429963899131 ], [ -79.064347455684555, 35.908112452165739 ], [ -79.064194674486316, 35.907795808158767 ], [ -79.063914719523765, 35.907169446093278 ], [ -79.063878611088853, 35.907070321548709 ], [ -79.063903781348074, 35.906827560114728 ], [ -79.063998821615144, 35.906831928495883 ], [ -79.064454693128084, 35.906844052628344 ], [ -79.064539113952478, 35.906846239633794 ], [ -79.064547354404667, 35.906846458798285 ], [ -79.064727372542706, 35.906851285458046 ], [ -79.064956153132258, 35.906857341419972 ], [ -79.066040541947842, 35.906885926431585 ], [ -79.066228539287891, 35.906574874564434 ], [ -79.066203154545832, 35.906502775882181 ], [ -79.066626889866455, 35.906446220026176 ], [ -79.066961035141787, 35.906262141270759 ], [ -79.067248440159972, 35.906219580440066 ], [ -79.067269551609186, 35.906222475509658 ], [ -79.067589512059627, 35.906238604189824 ], [ -79.067588203722394, 35.906189670392443 ], [ -79.06775280496376, 35.906172234401524 ], [ -79.067868447694806, 35.906159806038538 ], [ -79.067867721875345, 35.906301973697907 ], [ -79.067918519177425, 35.906290068043454 ], [ -79.067924273346151, 35.906288719192837 ], [ -79.068096453266151, 35.90624861431867 ], [ -79.068260614720828, 35.906210230671952 ], [ -79.068426464240275, 35.906171673707945 ], [ -79.068597799624669, 35.906131740747099 ], [ -79.068760296963347, 35.90609377106054 ], [ -79.068765758693559, 35.906092495340616 ], [ -79.068960161763414, 35.90588170749411 ], [ -79.069039021582384, 35.905798559913499 ], [ -79.06950075701549, 35.90527340587672 ], [ -79.069545422369117, 35.90522258739631 ], [ -79.069616717265035, 35.905141472570229 ], [ -79.069655105035139, 35.905097864462057 ], [ -79.06966160057209, 35.905090486277736 ], [ -79.069669169658852, 35.905081888915845 ], [ -79.069688399490062, 35.905060043824776 ], [ -79.069822069485724, 35.904908184062307 ], [ -79.069876044447938, 35.904846856318748 ], [ -79.070152234956467, 35.904532655246605 ], [ -79.070355899616089, 35.904301255892257 ], [ -79.070432636928118, 35.904214003140204 ], [ -79.070534785603016, 35.904097857832461 ], [ -79.070642207513856, 35.903975715701606 ], [ -79.070127253515594, 35.903958681561008 ], [ -79.070021175722033, 35.903955573494137 ], [ -79.070021100388615, 35.90395557173477 ], [ -79.069713604342809, 35.903946563513564 ], [ -79.069714004785027, 35.90392149618431 ], [ -79.069714402113405, 35.903892821833104 ], [ -79.069750451704493, 35.903343784618926 ], [ -79.069756064339956, 35.903258370103757 ], [ -79.069765230696817, 35.903118946428791 ], [ -79.06976685782189, 35.903094292089584 ], [ -79.06981896427034, 35.902308144428218 ], [ -79.069824382237996, 35.902224530797788 ], [ -79.069988159341278, 35.90224005839287 ], [ -79.069874334020753, 35.901423011419979 ], [ -79.069878130915825, 35.901422317042396 ], [ -79.069891214020629, 35.901419911173264 ], [ -79.069911048040694, 35.901416293684576 ], [ -79.069927506119242, 35.901413364922767 ], [ -79.069936342785013, 35.901411906952532 ], [ -79.069937419400077, 35.9014117287781 ], [ -79.069947340433515, 35.901410090825607 ], [ -79.069957239313894, 35.901408456490181 ], [ -79.069967174746168, 35.901406816725213 ], [ -79.069977091422956, 35.90140526619944 ], [ -79.069987008097797, 35.901403713870238 ], [ -79.070000515627896, 35.901401479895398 ], [ -79.07000684351587, 35.901400440664048 ], [ -79.070026677972194, 35.901397337802045 ], [ -79.070033430146495, 35.901396303733641 ], [ -79.070040182320625, 35.901395269664938 ], [ -79.070046934494542, 35.901394235595774 ], [ -79.070066768947825, 35.901391132727248 ], [ -79.070086603549754, 35.901388202906148 ], [ -79.070096520221199, 35.901386651469366 ], [ -79.070106438000067, 35.901385100031149 ], [ -79.070126272598287, 35.901382169302302 ], [ -79.070136401004888, 35.90138078989002 ], [ -79.070146529410451, 35.901379409575597 ], [ -79.070157803020123, 35.901377744690414 ], [ -79.070166364006596, 35.901376479741522 ], [ -79.070176280824626, 35.901375100447666 ], [ -79.070186198749369, 35.901373720250994 ], [ -79.070206455558107, 35.901370961415651 ], [ -79.070226290298947, 35.901368202819896 ], [ -79.070236217083476, 35.901366821712777 ], [ -79.070246125037599, 35.90136544331957 ], [ -79.070252877355387, 35.901364580487119 ], [ -79.070259629673771, 35.901363718555572 ], [ -79.07026638199126, 35.90136285572234 ], [ -79.070280326336089, 35.901361036966996 ], [ -79.070286216877037, 35.901360268364883 ], [ -79.070306051761605, 35.901357681004264 ], [ -79.070312804078057, 35.901356818168452 ], [ -79.070319556395191, 35.901355956233623 ], [ -79.070326308711387, 35.901355093397044 ], [ -79.070346143742498, 35.901352677277934 ], [ -79.070352896058921, 35.901351815341236 ], [ -79.070359648375174, 35.901350953404169 ], [ -79.070362953642814, 35.901350531489364 ], [ -79.070366400690546, 35.901350090565387 ], [ -79.070386235720008, 35.901347675341029 ], [ -79.070396390925524, 35.901346549158696 ], [ -79.0703996685492, 35.901346185843828 ], [ -79.070406492963286, 35.901345430216665 ], [ -79.070416446476514, 35.901344218524962 ], [ -79.070424584526393, 35.90134323500952 ], [ -79.070426327990404, 35.901343014985791 ], [ -79.070427338199238, 35.90134290894985 ], [ -79.070428440335405, 35.901342781229516 ], [ -79.070436456611858, 35.901341893321998 ], [ -79.070446585232176, 35.901340770756093 ], [ -79.070458334363735, 35.901339441755688 ], [ -79.070466419294689, 35.901338522260865 ], [ -79.070476549024363, 35.90133740239569 ], [ -79.07048333245443, 35.901336653097047 ], [ -79.07048340556122, 35.901336644943093 ], [ -79.070483458730195, 35.901336639504542 ], [ -79.070486677645931, 35.901336282530401 ], [ -79.070493430107376, 35.901335590031337 ], [ -79.070500182571038, 35.901334900235817 ], [ -79.070506935033833, 35.901334209538668 ], [ -79.07051497455474, 35.901333301783851 ], [ -79.070526770205532, 35.90133196644085 ], [ -79.070533522667873, 35.901331275742187 ], [ -79.070540275130071, 35.901330585043198 ], [ -79.070547027592113, 35.901329894343796 ], [ -79.070550546711743, 35.901329530885214 ], [ -79.070553814379693, 35.901329185598065 ], [ -79.070564498006931, 35.901328073517078 ], [ -79.070566862910525, 35.901327821586207 ], [ -79.070587120444657, 35.901325920730557 ], [ -79.070607377977893, 35.901324019871574 ], [ -79.07062721329325, 35.901321947104158 ], [ -79.07067695264962, 35.901317870535905 ], [ -79.070713730725785, 35.901314855988225 ], [ -79.070795410721402, 35.901308083976382 ], [ -79.070932767293314, 35.901296696412182 ], [ -79.071050517314774, 35.901288040254364 ], [ -79.071216378559356, 35.901275749784212 ], [ -79.071240654885642, 35.901273593207186 ], [ -79.071251406210095, 35.901272638755046 ], [ -79.071260467129989, 35.901271770913333 ], [ -79.071271241648233, 35.901270738032245 ], [ -79.071277994251005, 35.90127021944177 ], [ -79.071284747960661, 35.901269699948976 ], [ -79.07129150056241, 35.901269180456467 ], [ -79.071301629541324, 35.901268487742293 ], [ -79.071311758519215, 35.901267794125964 ], [ -79.071321887573362, 35.901267187034165 ], [ -79.071332016628205, 35.901266580842822 ], [ -79.071352273930529, 35.901265709151751 ], [ -79.07136237987352, 35.901265275120885 ], [ -79.07137253234103, 35.90126483835806 ], [ -79.071378442231378, 35.901264674468237 ], [ -79.071386039258158, 35.901264487058441 ], [ -79.071392792162413, 35.901264310957735 ], [ -79.071413051027974, 35.901263955704074 ], [ -79.071419804084314, 35.901263951751297 ], [ -79.071426557140683, 35.901263947798085 ], [ -79.071433310197023, 35.901263943844533 ], [ -79.071453568409837, 35.901264103230339 ], [ -79.071463724656994, 35.901264182906061 ], [ -79.071473827730486, 35.901264262612081 ], [ -79.07148058093847, 35.901264429904003 ], [ -79.071487335255028, 35.901264598096176 ], [ -79.071494088462998, 35.90126476538731 ], [ -79.071504191839821, 35.901265187587015 ], [ -79.071514348392043, 35.901265611557257 ], [ -79.071524478356707, 35.901266034640955 ], [ -79.071534608321542, 35.901266457723835 ], [ -79.071545556039226, 35.901267114665934 ], [ -79.071554446489614, 35.901267647532038 ], [ -79.071564576683187, 35.901268328385818 ], [ -79.071574706876888, 35.901269009238732 ], [ -79.071581460389766, 35.901269519922522 ], [ -79.071588213902757, 35.901270030605865 ], [ -79.071594967416672, 35.901270542190154 ], [ -79.071605071250232, 35.901271478125715 ], [ -79.071615228261663, 35.901272418535676 ], [ -79.071635067193469, 35.901274466373721 ], [ -79.071655328345841, 35.90127668701134 ], [ -79.071675167584445, 35.901279078240286 ], [ -79.071681921403567, 35.90127993231593 ], [ -79.071688675223712, 35.901280787292464 ], [ -79.07169542904316, 35.901281641367355 ], [ -79.071707713724535, 35.901283391694868 ], [ -79.071718223509762, 35.901284889797452 ], [ -79.071931393203641, 35.901314291996592 ], [ -79.072150934117772, 35.901387302453735 ], [ -79.072393674002313, 35.901444672808438 ], [ -79.072673986251147, 35.901510947741556 ], [ -79.073063974812555, 35.901601977466257 ], [ -79.073105017509917, 35.901540986740486 ], [ -79.073209534002729, 35.901385670500815 ], [ -79.073288717220862, 35.901266927259805 ], [ -79.07364315886646, 35.900703363211171 ], [ -79.07396514993188, 35.90019647832262 ], [ -79.074131199515463, 35.899933674637673 ], [ -79.074131009926901, 35.899728321961589 ], [ -79.074115814372135, 35.899692931474391 ], [ -79.073698744458682, 35.898721577205627 ], [ -79.073402348898171, 35.898596937490552 ], [ -79.073376880783627, 35.898539782006353 ], [ -79.073344726011655, 35.898467623773683 ], [ -79.073344408549616, 35.898466911931941 ], [ -79.073281733239028, 35.898326407883985 ], [ -79.072926750772027, 35.897609921840193 ], [ -79.072926744080064, 35.897609871370975 ], [ -79.072881577248594, 35.897258736393596 ], [ -79.073014808769457, 35.897021392950286 ], [ -79.073255026150818, 35.8968627080556 ], [ -79.073864472985548, 35.896734056588294 ], [ -79.073911607401214, 35.895210882671243 ], [ -79.073931279199059, 35.8945708121392 ], [ -79.073948487428908, 35.894010852149655 ], [ -79.073957073164124, 35.893709686413501 ], [ -79.075440722978627, 35.893680923033877 ], [ -79.075540913163636, 35.893678980006122 ], [ -79.075290111537527, 35.893626264281465 ], [ -79.07531782873258, 35.893549917146792 ], [ -79.075347848359669, 35.893467226072509 ], [ -79.075398645826752, 35.893427349634067 ], [ -79.075525811390719, 35.893327521337426 ], [ -79.075699158879317, 35.893215804836508 ], [ -79.075984431144406, 35.89297143860064 ], [ -79.076091205295185, 35.892755227365321 ], [ -79.076106506138771, 35.892699451133787 ], [ -79.076114337039158, 35.892670908103369 ], [ -79.076130996204057, 35.892644887734818 ], [ -79.076164483723659, 35.892592580998389 ], [ -79.076199875798295, 35.892531433023542 ], [ -79.076216595276833, 35.892361611453843 ], [ -79.076223214079718, 35.892220126130255 ], [ -79.076217657545712, 35.892205504960572 ], [ -79.076178790730225, 35.892103227948638 ], [ -79.076180793458448, 35.891989389550112 ], [ -79.076253669931447, 35.891850094454128 ], [ -79.07627513928422, 35.891793419327186 ], [ -79.07635273546579, 35.891735334583409 ], [ -79.076414298505284, 35.89168103812127 ], [ -79.076438312458563, 35.891670518317603 ], [ -79.076617625819352, 35.891591965787143 ], [ -79.076647958666825, 35.891538033114195 ], [ -79.076688089370293, 35.891480192505711 ], [ -79.076688838225479, 35.891479113167726 ], [ -79.076750808011795, 35.891409191175796 ], [ -79.076791627851463, 35.891287601385208 ], [ -79.07681561279297, 35.891215300368934 ], [ -79.076816797124991, 35.891214405524209 ], [ -79.076856097008829, 35.891184711467808 ], [ -79.076922740451039, 35.891148267378526 ], [ -79.076988959529956, 35.891109420629149 ], [ -79.077081288609975, 35.891013208828788 ], [ -79.07708479050109, 35.891008061040147 ], [ -79.077146608870166, 35.890917186188126 ], [ -79.077212735618389, 35.890783216964827 ], [ -79.077242511561877, 35.89065381872912 ], [ -79.077253081037625, 35.890607884903496 ], [ -79.077275071303134, 35.890507469588592 ], [ -79.077286345425918, 35.890455985046401 ], [ -79.077287114090524, 35.890452474859515 ], [ -79.077291337338679, 35.890314542057041 ], [ -79.077302451699495, 35.889951476620141 ], [ -79.077259510364101, 35.889950720584963 ], [ -79.077077255598354, 35.889947514547245 ], [ -79.077225073155077, 35.889461931377276 ], [ -79.077314514598172, 35.889385270584157 ], [ -79.077315608032265, 35.889384333430037 ], [ -79.077411437949024, 35.888927297621976 ], [ -79.077938157001981, 35.888955876274281 ], [ -79.078573595874389, 35.888990336729471 ], [ -79.078574542938171, 35.888990389296772 ], [ -79.079442405480634, 35.889037888677869 ], [ -79.079444038196897, 35.88903797774563 ], [ -79.080096692685302, 35.88908779089904 ], [ -79.08009763201666, 35.889087862387107 ], [ -79.080523942172135, 35.889121171757616 ], [ -79.081315626361146, 35.889183026284798 ], [ -79.081429294829732, 35.88919190768349 ], [ -79.081569857646301, 35.888969547988737 ], [ -79.081831542696349, 35.888597293832312 ], [ -79.082139537490136, 35.888120270207473 ], [ -79.082349746507887, 35.887760584899468 ], [ -79.082524114020799, 35.88743011238023 ], [ -79.08264699269516, 35.88709538332548 ], [ -79.082718955292648, 35.886903029967698 ], [ -79.08279545226236, 35.886606106985433 ], [ -79.082877447371587, 35.886321714720651 ], [ -79.082918583291715, 35.886108433857324 ], [ -79.082928538009853, 35.885941019358981 ], [ -79.082948918016669, 35.885652548955363 ], [ -79.082933045952274, 35.885401706781558 ], [ -79.08283425452953, 35.884126387399704 ], [ -79.082792391871664, 35.883457973188129 ], [ -79.082792464971206, 35.883457974941116 ], [ -79.08280720201985, 35.88285084562429 ], [ -79.082883526368462, 35.882390807273978 ], [ -79.082945228150123, 35.882072947264156 ], [ -79.082998434421739, 35.8817008357547 ], [ -79.083023942827168, 35.881476748479535 ], [ -79.083027992115404, 35.881312084914363 ], [ -79.083023566349553, 35.881112572443101 ], [ -79.082993012493588, 35.880944499304647 ], [ -79.082646979818648, 35.879687723483954 ], [ -79.082331406445817, 35.878525186745456 ], [ -79.08215270062108, 35.877866840812736 ], [ -79.082054054238014, 35.877539648271295 ], [ -79.081995257504033, 35.877396147261123 ], [ -79.081896741827379, 35.877196699489197 ], [ -79.081710358394247, 35.876893605321044 ], [ -79.081543409553944, 35.876614363743272 ], [ -79.081338851951557, 35.876279001425374 ], [ -79.081040074281333, 35.875813554265868 ], [ -79.080890404944626, 35.875510089997753 ], [ -79.080732699819023, 35.875186370181531 ], [ -79.080649342708867, 35.874950167317316 ], [ -79.08062427270626, 35.874774706023338 ], [ -79.080591092007026, 35.874504815711489 ], [ -79.080540974116374, 35.874174325823823 ], [ -79.080532198218876, 35.873836939664479 ], [ -79.080564908788418, 35.873216048007748 ], [ -79.080635862323604, 35.869497988443513 ], [ -79.080639142409055, 35.869295058471259 ], [ -79.080685122670189, 35.866450603257753 ], [ -79.080693409258643, 35.865037496623017 ], [ -79.080701626698996, 35.86481822847599 ], [ -79.080742753734796, 35.864602371647209 ], [ -79.080782629521906, 35.864401110660673 ], [ -79.080992654487005, 35.863913334792791 ], [ -79.081513088505034, 35.862926552728744 ], [ -79.081600041635312, 35.862750029014855 ], [ -79.08182841569085, 35.86228640259278 ], [ -79.081959269078155, 35.861947545025423 ], [ -79.082058879463276, 35.861583640820129 ], [ -79.082166254332265, 35.860975055552821 ], [ -79.082184296067382, 35.860696823272683 ], [ -79.081920325791231, 35.86070213660377 ], [ -79.081780827442472, 35.860707984257459 ], [ -79.081054846923422, 35.8607388758669 ], [ -79.08032000707621, 35.86076994114125 ], [ -79.080149585017708, 35.860777268331113 ], [ -79.078965064557622, 35.860827345071073 ], [ -79.078482479189617, 35.860844666304871 ], [ -79.078013819190829, 35.860867641512101 ], [ -79.077515628363074, 35.860888746330453 ], [ -79.075668824330123, 35.860974080467926 ], [ -79.074577317044998, 35.861020648943196 ], [ -79.074110649565824, 35.861040556062406 ], [ -79.07304942107767, 35.861085818891098 ], [ -79.071951080498764, 35.86113265456914 ], [ -79.071309527132584, 35.861160007890675 ], [ -79.07100406556296, 35.861173042544657 ], [ -79.070158384649559, 35.861209126004105 ], [ -79.069670481208732, 35.861229941381154 ], [ -79.069241089523516, 35.861248258292306 ], [ -79.06738967272544, 35.861327219902606 ], [ -79.067232002107801, 35.861333943343446 ], [ -79.066265082481266, 35.861370760597062 ], [ -79.064947711630182, 35.861420910280891 ], [ -79.064838462282722, 35.861426087908555 ], [ -79.064628840119994, 35.862187964096186 ], [ -79.064415888619635, 35.863092549023499 ], [ -79.064205980050318, 35.86399216271888 ], [ -79.06411469783761, 35.864362447863648 ], [ -79.06404767135794, 35.864526481492788 ], [ -79.063959282149369, 35.864697980180196 ], [ -79.063794593862127, 35.864891884931552 ], [ -79.063471245506321, 35.865182781809686 ], [ -79.063035018106262, 35.865565676902612 ], [ -79.062739124021618, 35.86583916394865 ], [ -79.062513360981825, 35.866010735706091 ], [ -79.062122851988136, 35.866311603926363 ], [ -79.061991665702138, 35.866413550185825 ], [ -79.06165296843723, 35.866610028787782 ], [ -79.061411885648312, 35.866714516653936 ], [ -79.061156174765017, 35.866803089607458 ], [ -79.060960005347511, 35.866879301353968 ], [ -79.060817215770271, 35.866934754077626 ], [ -79.060683050886126, 35.866984321247301 ], [ -79.060557580965764, 35.867031577480802 ], [ -79.060469524769573, 35.867066804087365 ], [ -79.060368273524389, 35.867115124286343 ], [ -79.060272282890637, 35.867157326364286 ], [ -79.060163743886775, 35.867211239060452 ], [ -79.060074526267698, 35.867256103735528 ], [ -79.060017277512131, 35.86728543554208 ], [ -79.059960605271684, 35.867309809794286 ], [ -79.059944701165989, 35.867317715853765 ], [ -79.059897014289874, 35.867341422289975 ], [ -79.059830424573491, 35.867374448587007 ], [ -79.059782216722596, 35.867402013771475 ], [ -79.059715238425284, 35.867432294783796 ], [ -79.05964698951108, 35.867466441227677 ], [ -79.059588375431616, 35.867494690115279 ], [ -79.059530443820861, 35.867523480332835 ], [ -79.059468852809985, 35.867554242585818 ], [ -79.059403921796388, 35.867586146600253 ], [ -79.05936733742773, 35.867606413400956 ], [ -79.059327398082686, 35.867626999086255 ], [ -79.059271419380138, 35.867652464172487 ], [ -79.059210079630503, 35.867678823238123 ], [ -79.059155166091557, 35.867707299053087 ], [ -79.05910656360976, 35.867731844746828 ], [ -79.059045638681198, 35.867762322546071 ], [ -79.058991423640549, 35.867792164344607 ], [ -79.058916784700017, 35.867826117880171 ], [ -79.058854127997577, 35.867853869034434 ], [ -79.058808848101691, 35.86787644723271 ], [ -79.058748243890349, 35.867903622302215 ], [ -79.058676299011978, 35.867939289597274 ], [ -79.058631691000144, 35.867960111640549 ], [ -79.05859460804075, 35.867977421225881 ], [ -79.058515271997763, 35.868013630963276 ], [ -79.058431232538169, 35.868050659495189 ], [ -79.058357608988416, 35.868085225995387 ], [ -79.058279266223693, 35.868129409051846 ], [ -79.058199243037805, 35.868174416662711 ], [ -79.058106779705028, 35.868225184154063 ], [ -79.058026070682374, 35.868277613418208 ], [ -79.057950759204658, 35.86831685109609 ], [ -79.057890232125061, 35.868353630128617 ], [ -79.05783004071003, 35.868390684774319 ], [ -79.057759775338511, 35.868425527823639 ], [ -79.057672702321142, 35.868467502788221 ], [ -79.057604436294881, 35.86851114705977 ], [ -79.057591489488601, 35.868519152359383 ], [ -79.057537854907764, 35.86855231818619 ], [ -79.057483428642726, 35.868584076505563 ], [ -79.057458836028019, 35.868598426239082 ], [ -79.057381496694887, 35.868644259449603 ], [ -79.057276243619555, 35.868709035173474 ], [ -79.057189485147134, 35.868762833111347 ], [ -79.057116837155533, 35.868814720798312 ], [ -79.05704418600051, 35.868868533654549 ], [ -79.056967170848878, 35.868920966786781 ], [ -79.056875708861369, 35.868974483680766 ], [ -79.056799367098876, 35.869025817686179 ], [ -79.056720684494948, 35.869071099490213 ], [ -79.056644676624856, 35.869123533749004 ], [ -79.056569009815348, 35.869172942983319 ], [ -79.05649938175317, 35.869226208809224 ], [ -79.056486406433365, 35.869234931450421 ], [ -79.056442208639353, 35.869264640373665 ], [ -79.056385693263707, 35.869311046453923 ], [ -79.056319427745478, 35.869362390815844 ], [ -79.056255165502748, 35.869420335457612 ], [ -79.05618214854367, 35.869489544242306 ], [ -79.056120914822017, 35.8695444689072 ], [ -79.05605295232219, 35.869605159649282 ], [ -79.05597489110086, 35.869677662230387 ], [ -79.055903573789905, 35.869736149806421 ], [ -79.055841666609851, 35.869791347733617 ], [ -79.055765290541402, 35.869860827290822 ], [ -79.055689250409856, 35.869929482842046 ], [ -79.055632712567814, 35.869987986037714 ], [ -79.055568776088336, 35.870050881085426 ], [ -79.055519983136975, 35.870098394555008 ], [ -79.05545840143364, 35.870159091962989 ], [ -79.055405575369448, 35.870208250318043 ], [ -79.055384086044299, 35.870234234205235 ], [ -79.055368543838924, 35.870253027392977 ], [ -79.05532413639672, 35.870290097043245 ], [ -79.055288458646416, 35.870329376351926 ], [ -79.055244383731534, 35.870368646835068 ], [ -79.0551979356445, 35.870419187529947 ], [ -79.05514982176112, 35.870462851918433 ], [ -79.055121536595948, 35.870500489240186 ], [ -79.055067032429307, 35.870547996990034 ], [ -79.055022265841714, 35.870597988855408 ], [ -79.054983892884053, 35.870641114300177 ], [ -79.054948882944316, 35.870682594216888 ], [ -79.054903097846008, 35.870738084521925 ], [ -79.054862373268151, 35.870782032083689 ], [ -79.054807506381749, 35.870843836548232 ], [ -79.054771485245766, 35.870886964470728 ], [ -79.054706848720059, 35.870964704933371 ], [ -79.054641884262722, 35.871037495480024 ], [ -79.054567182554081, 35.871108626518193 ], [ -79.054515349771592, 35.871164385262851 ], [ -79.054471585235561, 35.871216852381252 ], [ -79.054427493219222, 35.871264921208336 ], [ -79.054378338805037, 35.871325356524835 ], [ -79.054320735249576, 35.8714141023043 ], [ -79.054283337693434, 35.871474550368525 ], [ -79.054251635331127, 35.871543253740796 ], [ -79.054232835337643, 35.871574538656027 ], [ -79.054201768193195, 35.871626234806016 ], [ -79.054156636130188, 35.871691072966925 ], [ -79.054112159366042, 35.871765535967867 ], [ -79.054074419304001, 35.871829283828653 ], [ -79.054040733896201, 35.871880662929286 ], [ -79.05400568134435, 35.871944412279184 ], [ -79.05396322769478, 35.872014203706236 ], [ -79.053931216867142, 35.87206778394598 ], [ -79.053909195129975, 35.872103877846655 ], [ -79.053897186483951, 35.872123561574512 ], [ -79.053857772837816, 35.872184007679756 ], [ -79.053816671447379, 35.872249400934699 ], [ -79.053787660090364, 35.87231590737531 ], [ -79.053753992815402, 35.87235683743048 ], [ -79.053727708822905, 35.872401625458529 ], [ -79.053690652572797, 35.87245877525627 ], [ -79.053657618099322, 35.872520602901425 ], [ -79.053620528566825, 35.872596172870949 ], [ -79.053594579963047, 35.872640961620277 ], [ -79.05358466985642, 35.8726609256017 ], [ -79.053567649808684, 35.872695211900883 ], [ -79.053554113983395, 35.872725052281872 ], [ -79.053541996756394, 35.872738236633637 ], [ -79.053514097938759, 35.872778005893792 ], [ -79.052847317887441, 35.873062469598651 ], [ -79.052562548531569, 35.873183957443388 ], [ -79.052343660492326, 35.873277338593915 ], [ -79.050389322167263, 35.874111061406524 ], [ -79.049905920928339, 35.874317273678912 ], [ -79.048402177657977, 35.874958729729549 ], [ -79.047802091700049, 35.8752147017602 ], [ -79.047600628072928, 35.875300637060455 ], [ -79.047577387862887, 35.875310549770958 ], [ -79.045845058902643, 35.876049459917539 ], [ -79.045518620991459, 35.876188695511416 ], [ -79.045514339544113, 35.876190521368969 ], [ -79.044787873581399, 35.876500374551519 ], [ -79.044540465266479, 35.876605898157614 ], [ -79.044506289725476, 35.876620474064154 ], [ -79.044131293540232, 35.876780414186499 ], [ -79.043760827623018, 35.876938420005388 ], [ -79.043036289140048, 35.87724743547178 ], [ -79.042620237361064, 35.877424878086323 ], [ -79.042273411183757, 35.877572795300999 ], [ -79.041979674714227, 35.877697917065561 ], [ -79.040859398097496, 35.878175106776084 ], [ -79.038929265160178, 35.878986240480415 ], [ -79.03872700590378, 35.879071236508437 ], [ -79.037882973866743, 35.87942592221993 ], [ -79.036832419231061, 35.87986738170013 ], [ -79.036653342045071, 35.879942631277359 ], [ -79.036052894504465, 35.880194940782225 ], [ -79.035412121036813, 35.880464190180895 ], [ -79.032331958370534, 35.881758386586888 ], [ -79.03119843954228, 35.882234628696587 ], [ -79.026350209998114, 35.884271403968462 ], [ -79.024077055547963, 35.885226269657203 ], [ -79.023893016578114, 35.885303574345791 ], [ -79.021931208773566, 35.886127597758637 ], [ -79.011564877220138, 35.890480990651767 ], [ -79.011564847310837, 35.89048096902318 ], [ -79.012076539103376, 35.887539609117383 ], [ -79.012076428343278, 35.887539606424397 ], [ -79.011983238505437, 35.887539906738574 ], [ -79.010358512996604, 35.887545131719094 ], [ -79.009363699924293, 35.887560252313925 ], [ -79.003720092941791, 35.887645430527385 ], [ -79.002807265121021, 35.887659272949364 ], [ -79.0029173559154, 35.890201410423273 ], [ -79.002917390283187, 35.890202271173074 ], [ -79.003045482575772, 35.893256707753302 ], [ -79.003046840316145, 35.893455016309609 ], [ -79.003566331172976, 35.893727020696645 ], [ -79.003738424161199, 35.893827616872855 ], [ -79.003874370087345, 35.893919421694214 ], [ -79.003997251044524, 35.894008687804615 ], [ -79.003953367280147, 35.894019401283572 ], [ -79.004207908019595, 35.894233641838191 ], [ -79.004589727085644, 35.89464070206823 ], [ -79.00460727949455, 35.894619276413017 ], [ -79.005119045355258, 35.895163426091614 ], [ -79.006038041404508, 35.896176089785079 ], [ -79.00602926760078, 35.896226082142384 ], [ -79.006959733262306, 35.897250856011226 ], [ -79.007249411694829, 35.897575783793336 ], [ -79.007366181867098, 35.897703260371514 ], [ -79.00751141136486, 35.897890916251519 ], [ -79.00712103465932, 35.897908467382649 ], [ -79.006870914193868, 35.897938947706081 ], [ -79.004886233994725, 35.898070521508494 ], [ -79.004313605756238, 35.898108401600801 ], [ -79.002051157965695, 35.898620509269819 ], [ -79.001564014260921, 35.898731571000276 ], [ -79.001562643980535, 35.898731925231431 ], [ -79.001359635194206, 35.89878381138476 ], [ -79.000797503906853, 35.898929665804495 ], [ -79.000797200434505, 35.898934924029369 ], [ -79.000785409541862, 35.899165593699266 ], [ -79.000768766396874, 35.89949160267561 ], [ -79.000762757932179, 35.899611818964573 ], [ -79.000751347849302, 35.899835577354999 ], [ -79.000742908209588, 35.900001947735255 ], [ -79.00072663289626, 35.900003211464856 ], [ -79.000649280659331, 35.900399135892897 ], [ -79.000643035289386, 35.900431168346387 ], [ -79.000651003500266, 35.900430509449215 ], [ -79.000653411128624, 35.900484280458691 ], [ -79.000658331643692, 35.900593059967015 ], [ -79.000710126797472, 35.900591109249469 ], [ -79.000698528256493, 35.900831989666457 ], [ -79.000690040764994, 35.900997859758107 ], [ -79.000686562932714, 35.901068460874669 ], [ -79.00068811728481, 35.901213786528636 ], [ -79.000668982535458, 35.901215139495449 ], [ -79.000616131276033, 35.901218943285286 ], [ -79.00058928634823, 35.901220874916767 ], [ -79.0005894558455, 35.901221726650007 ], [ -79.000681773176296, 35.901626991115563 ], [ -79.000692746941525, 35.901626579156883 ], [ -79.000694977244905, 35.90179234368653 ], [ -79.000699166025726, 35.902200471072362 ], [ -79.000709781258024, 35.90286473763198 ], [ -79.000706144743972, 35.903291517414253 ], [ -79.000706381463345, 35.903756779227948 ], [ -79.000487567711644, 35.903839959038756 ], [ -79.000024224118391, 35.904142891319971 ], [ -78.999980604626529, 35.904168484775717 ], [ -78.999960960668943, 35.904180007954537 ], [ -78.999864103424315, 35.904236763055614 ], [ -79.000263494641601, 35.904248877280402 ], [ -79.001220856645958, 35.904965391606872 ], [ -79.00244893535401, 35.905311188371201 ], [ -79.004809135266925, 35.905975998699049 ], [ -79.003325000466972, 35.907253671988443 ], [ -79.003217492348682, 35.907486831363059 ], [ -79.003039867583283, 35.907872148680902 ], [ -79.002471776660371, 35.909104466902917 ], [ -79.001853182202481, 35.911114422199937 ], [ -79.000773542094322, 35.912087215880035 ], [ -79.000558873547476, 35.912280610381821 ], [ -79.000689529929062, 35.912372200943743 ], [ -79.000887624552746, 35.912356754946479 ], [ -79.001327991568004, 35.912736938210777 ], [ -79.001653879788833, 35.913018272047793 ], [ -79.001631726820776, 35.913039013107458 ], [ -79.001729928944883, 35.913108435438531 ], [ -79.002011041263373, 35.91330746202344 ], [ -79.002313190991245, 35.913521378857503 ], [ -79.001625069596315, 35.914490263110814 ], [ -79.00142174325768, 35.91480054137687 ], [ -79.001405317731965, 35.914808672207158 ], [ -79.001378647989384, 35.914821875675734 ], [ -79.001361358492915, 35.914845145669041 ], [ -78.999568007287962, 35.915001538220345 ], [ -78.999546758799141, 35.9157531701659 ], [ -78.999558211539863, 35.91665595016525 ], [ -78.999560338108608, 35.916800506194718 ], [ -78.999566246052552, 35.917196455706737 ], [ -78.999572559494482, 35.91760971283464 ], [ -78.999574686151817, 35.917747071027875 ], [ -78.999580999678955, 35.918160520048154 ], [ -78.999588557611617, 35.91878610801313 ], [ -78.999525834503757, 35.918786107786403 ], [ -78.999525833807098, 35.918905156903833 ], [ -78.999595526469889, 35.918910826330929 ], [ -78.999596192189429, 35.919174417820571 ], [ -78.999624046035109, 35.921050732642279 ], [ -78.999342474724244, 35.921153749962677 ], [ -78.999379578623916, 35.921222956420145 ], [ -78.999413587777994, 35.921291879841888 ], [ -78.999441255619416, 35.921351894782184 ], [ -78.999466003767566, 35.921410729000279 ], [ -78.999497356990119, 35.921489104306502 ], [ -78.999513731655725, 35.921536329744335 ], [ -78.999542016696878, 35.921622909549058 ], [ -78.999555660042432, 35.921668834394055 ], [ -78.999556124307674, 35.921671399493 ], [ -78.999585201572017, 35.921784746967198 ], [ -78.999585641461394, 35.921787302151515 ], [ -78.999586480254337, 35.921789956480119 ], [ -78.999607746876052, 35.921893928604923 ], [ -78.999618606725761, 35.921963303426828 ], [ -78.99962147542854, 35.921982186551034 ], [ -78.999621474308455, 35.921984764266142 ], [ -78.999632077032942, 35.922071084405644 ], [ -78.999635017693763, 35.922106313486893 ], [ -78.999635458693561, 35.92210908768638 ], [ -78.999641593649443, 35.922207277013165 ], [ -78.9996427689059, 35.922300013463463 ], [ -78.999648119529539, 35.922616424349592 ], [ -78.999652745511298, 35.92293234849506 ], [ -78.999657371552487, 35.923242778287062 ], [ -78.999658653387669, 35.923558701448094 ], [ -78.999659092243633, 35.92381006727112 ], [ -78.999659091012816, 35.92410299734145 ], [ -78.99966118319135, 35.924347137410521 ], [ -78.999662026305373, 35.92464951753535 ], [ -78.999662869426544, 35.924951705649761 ], [ -78.999663712554792, 35.925253700852366 ], [ -78.999664445995208, 35.925553385994533 ], [ -78.999664791183861, 35.925685124185051 ], [ -78.999670091904903, 35.925814488364381 ], [ -78.999677264362333, 35.925919090289959 ], [ -78.99969056909049, 35.926052726628676 ], [ -78.999703545977212, 35.926153454780859 ], [ -78.999715315121364, 35.926230065103468 ], [ -78.999726726391657, 35.926297937342191 ], [ -78.999739262436918, 35.926364477462783 ], [ -78.999742410582414, 35.926380385370713 ], [ -78.999760368682402, 35.926465293941341 ], [ -78.999833134613553, 35.926754497879116 ], [ -78.999838141072459, 35.926802050336001 ], [ -78.999842343085518, 35.926821094755013 ], [ -78.999910466506037, 35.927128090210459 ], [ -78.999911610100526, 35.927133672846551 ], [ -78.999918950358534, 35.927196473441967 ], [ -78.999926004722425, 35.927264779158669 ], [ -78.999932357643971, 35.927332999249636 ], [ -78.999941108555916, 35.927462299347525 ], [ -78.999946174913049, 35.92758587529903 ], [ -79.00063267917804, 35.927572494807464 ], [ -79.001126219606107, 35.927562876206906 ], [ -79.001465299943604, 35.927555482867376 ], [ -79.001456393159387, 35.928073652161927 ], [ -79.001448801598684, 35.928527455229869 ], [ -79.001443339455307, 35.929083232698723 ], [ -79.001441103757699, 35.92923989069017 ], [ -79.001440253775641, 35.929301020237453 ], [ -79.001437061904824, 35.929530597618751 ], [ -79.001434128997914, 35.929741552391228 ], [ -79.001429437993522, 35.929923698131937 ], [ -79.001418433611306, 35.930355001867923 ], [ -79.001420125408046, 35.930521040428978 ], [ -79.001162082500045, 35.930559031892301 ], [ -79.000931030661135, 35.930622536496237 ], [ -79.00069041831371, 35.930709368962098 ], [ -79.000489641606023, 35.930802680214171 ], [ -79.000325514534424, 35.930892102849008 ], [ -79.00014704602296, 35.931007444748012 ], [ -78.999928739598758, 35.931140930353088 ], [ -78.999745893653568, 35.931271715357099 ], [ -78.999616416939773, 35.931384573485353 ], [ -78.999523994837958, 35.931481771606499 ], [ -78.999409262854357, 35.931642472144048 ], [ -78.999014070645714, 35.932248986590082 ], [ -78.998962782753722, 35.932329194257875 ], [ -78.998891367247523, 35.932501700686814 ], [ -78.998813284024763, 35.932624817812204 ], [ -78.998674645770976, 35.932790700705752 ], [ -78.998580626259809, 35.932947513321935 ], [ -78.998526489799161, 35.933064724331224 ], [ -78.998522595353691, 35.933073217189531 ], [ -78.998488197686356, 35.933169123596727 ], [ -78.998451545660345, 35.933272800929394 ], [ -78.998404337542965, 35.933440051864849 ], [ -78.998373775701467, 35.933618988284984 ], [ -78.998365849460114, 35.933792651513173 ], [ -78.998365722013602, 35.933792647906287 ], [ -78.998363259458159, 35.933850583117014 ], [ -78.998360274060317, 35.934169436896369 ], [ -78.998359754165563, 35.934230532064703 ], [ -78.998359218299527, 35.934314043335753 ], [ -78.998357952582808, 35.934373912729846 ], [ -78.998354662706475, 35.934458881353038 ], [ -78.998346501386067, 35.934578773277224 ], [ -78.998338277623461, 35.934662096062382 ], [ -78.998322760859466, 35.934780847737848 ], [ -78.99831164251097, 35.934854682546188 ], [ -78.998298053817194, 35.934930527204138 ], [ -78.998280757794149, 35.935016417636113 ], [ -78.998265933550925, 35.935082718460116 ], [ -78.998251109413772, 35.93514299232389 ], [ -78.998235050597245, 35.935206280095585 ], [ -78.998218990769089, 35.935264042027001 ], [ -78.998193049098859, 35.935350434330481 ], [ -78.998163401280308, 35.935440845442038 ], [ -78.998134374236528, 35.935521804678018 ], [ -78.99811645925422, 35.935570935765277 ], [ -78.998092988356348, 35.935628697557732 ], [ -78.998054693973501, 35.935707555706806 ], [ -78.998002193146206, 35.935815043225041 ], [ -78.997924986714395, 35.935970247523308 ], [ -78.997872485570056, 35.936076730933365 ], [ -78.997852103615344, 35.936114401972389 ], [ -78.997753895709423, 35.936283166646234 ], [ -78.997620482549479, 35.93651371245879 ], [ -78.997485214457271, 35.936745262108985 ], [ -78.997348710838722, 35.936980829530746 ], [ -78.997319062809382, 35.937031057093549 ], [ -78.997166498332874, 35.937292993988088 ], [ -78.997006675321217, 35.93756861843675 ], [ -78.996951856004344, 35.937664677868298 ], [ -78.996785854891925, 35.937971693891726 ], [ -78.996727946884377, 35.938079055348361 ], [ -78.9966823912536, 35.938171348382575 ], [ -78.996641468899398, 35.938273060041354 ], [ -78.996607494102122, 35.938380422084457 ], [ -78.996593029800906, 35.9384317954094 ], [ -78.996592986577369, 35.938431795408164 ], [ -78.996592860206306, 35.938432398369962 ], [ -78.996592826951712, 35.938432534464376 ], [ -78.996560948109106, 35.938584964822368 ], [ -78.996542037167387, 35.93876770512523 ], [ -78.996542033525799, 35.93885276107784 ], [ -78.99655364700395, 35.939018146921605 ], [ -78.996568162189845, 35.939285127504618 ], [ -78.996576871205846, 35.939443425468568 ], [ -78.996573960615251, 35.939578096600663 ], [ -78.996563572566401, 35.939756933577286 ], [ -78.996539080483544, 35.939951394956665 ], [ -78.996564905055848, 35.940114778460014 ], [ -78.996562316039714, 35.94011441877128 ], [ -78.996486760954653, 35.940494803651546 ], [ -78.996443172971809, 35.940667275568913 ], [ -78.99639958596137, 35.940813758686161 ], [ -78.996350185470277, 35.941012220051128 ], [ -78.996292067718471, 35.941234307598769 ], [ -78.996239762526145, 35.941416230083121 ], [ -78.99617292664432, 35.941647768223262 ], [ -78.996056690891692, 35.942051777810569 ], [ -78.996056690776342, 35.942054140097525 ], [ -78.995978231164628, 35.942318754219869 ], [ -78.995879429304011, 35.942673148885298 ], [ -78.995771907606539, 35.943060619632931 ], [ -78.995507459068676, 35.943991494029348 ], [ -78.99554231428526, 35.944187595614991 ], [ -78.99558879319666, 35.944343531543396 ], [ -78.99568466490075, 35.944541997535701 ], [ -78.995803781683406, 35.944705024562666 ], [ -78.995945176847158, 35.944836024819629 ], [ -78.995958002295453, 35.944984088470967 ], [ -78.996007872713847, 35.945056635942734 ], [ -78.996056329808169, 35.945156387919354 ], [ -78.99607601540211, 35.945211806243087 ], [ -78.996133262241401, 35.945380209808995 ], [ -78.995660974419124, 35.945573172977319 ], [ -78.99575426366728, 35.946032660692119 ], [ -78.996220488815752, 35.946668421278915 ], [ -78.996265464758096, 35.946739000930165 ], [ -78.996351629928583, 35.946869296808764 ], [ -78.996478384917751, 35.947062712975743 ], [ -78.996692731173468, 35.947384687862218 ], [ -78.99684370008589, 35.947607636845895 ], [ -78.997013897661773, 35.947860699104275 ], [ -78.997176262360284, 35.94810160071335 ], [ -78.997421238445668, 35.948372615056535 ], [ -78.997558682673358, 35.948525494698345 ], [ -78.997653398582884, 35.948631468430321 ], [ -78.998045440741379, 35.948918119779592 ], [ -78.998273333175575, 35.949094018940812 ], [ -78.998814497061531, 35.949434030643964 ], [ -78.999346540596321, 35.949791717750124 ], [ -78.999593438386967, 35.949957129787656 ], [ -78.999786043434796, 35.949886552092956 ], [ -79.000015040863005, 35.950004277814251 ], [ -79.000272813928376, 35.950289250815537 ], [ -79.000271617904019, 35.950289783480265 ], [ -79.000616175070377, 35.950534837396376 ], [ -79.000876906810987, 35.950995025079223 ], [ -79.000924057545348, 35.951078245265585 ], [ -79.001001768453264, 35.951215255019122 ], [ -79.000880743366295, 35.951921200461413 ], [ -79.000729734199183, 35.952802028209717 ], [ -79.000231907460034, 35.955674614592667 ], [ -79.000152960906476, 35.956130135330895 ], [ -78.999842491377734, 35.957921503838115 ], [ -78.99984238273737, 35.957922131133515 ], [ -78.999820825351776, 35.958046530310035 ], [ -78.999184001114287, 35.961721140637408 ], [ -78.999049584626292, 35.962496709232397 ], [ -78.998927836019902, 35.963199172534551 ], [ -78.998854953922475, 35.963619678963489 ], [ -78.998678177726319, 35.964639601538494 ], [ -78.997759461184998, 35.96993978890643 ], [ -78.998024861013391, 35.969836447907973 ], [ -79.000313651452984, 35.968945206488129 ], [ -79.001243683021343, 35.968583039781116 ], [ -79.004236872868276, 35.967417381620379 ], [ -79.004433196062593, 35.967340922371662 ], [ -79.007318246004488, 35.966217269343396 ], [ -79.008342709637844, 35.965818243061719 ], [ -79.010368534228235, 35.96502915139606 ], [ -79.01062643310614, 35.964928691894798 ], [ -79.011876966496189, 35.964441559475844 ], [ -79.012286950640984, 35.964281850934086 ], [ -79.014558654614419, 35.963396873927238 ], [ -79.016300439504903, 35.962718293518499 ], [ -79.016552703322532, 35.962620011383947 ], [ -79.017096617513758, 35.962408099254723 ], [ -79.017665870883263, 35.962186310144332 ], [ -79.017751500111174, 35.962152947463039 ], [ -79.017986913889857, 35.962248990025998 ], [ -79.018320175331283, 35.962403574894772 ], [ -79.018687728223895, 35.9625740630878 ], [ -79.01862784740733, 35.962658074722171 ], [ -79.018620168210973, 35.962668848955254 ], [ -79.018810264075313, 35.962756724862558 ], [ -79.018815459799924, 35.962750166311267 ], [ -79.018883315574797, 35.962664512114401 ], [ -79.018966115013313, 35.962713603099239 ], [ -79.018987237417562, 35.96272647647735 ], [ -79.01900329057051, 35.962736774767947 ], [ -79.019018921380621, 35.962747246168888 ], [ -79.019034552194597, 35.962757716666452 ], [ -79.019054830251193, 35.962772307112559 ], [ -79.019069616420808, 35.962783293272501 ], [ -79.01908440267546, 35.962794621918952 ], [ -79.019099188975218, 35.962806123610285 ], [ -79.019530111858728, 35.963156991513365 ], [ -79.01996230778785, 35.963516442379444 ], [ -79.020178609641931, 35.963665606420854 ], [ -79.021305767768183, 35.964458796031209 ], [ -79.021878194098505, 35.964520745542501 ], [ -79.022005277251381, 35.964534498839662 ], [ -79.022394755648278, 35.96457664779868 ], [ -79.022612281312249, 35.964600188015204 ], [ -79.022726637001242, 35.964667782048544 ], [ -79.023044855991486, 35.964855876350569 ], [ -79.023535382055627, 35.965145815197772 ], [ -79.023700146781181, 35.965243303191833 ], [ -79.023975601521556, 35.965406011439896 ], [ -79.024248944741174, 35.965566658239119 ], [ -79.024518486845963, 35.965725416989777 ], [ -79.02466593208247, 35.96581209172686 ], [ -79.024777055255171, 35.965909417823646 ], [ -79.025019582389859, 35.966122265176914 ], [ -79.025052988058263, 35.966151374306669 ], [ -79.02507915842709, 35.96617658686003 ], [ -79.025097309247172, 35.966193037872138 ], [ -79.025123063307646, 35.966216381238333 ], [ -79.025128959806494, 35.966221726441447 ], [ -79.025282483273514, 35.966294258021897 ], [ -79.025563616631828, 35.966424938831167 ], [ -79.026041684247389, 35.966653308758282 ], [ -79.026550885098843, 35.966894361004812 ], [ -79.026555116503943, 35.966896363638405 ], [ -79.02700161518149, 35.967094385000223 ], [ -79.027610752760609, 35.967365237726234 ], [ -79.027612535800245, 35.967366003414071 ], [ -79.027975042420465, 35.967521642869009 ], [ -79.028663419628231, 35.967758167471636 ], [ -79.029374045055206, 35.968096053765265 ], [ -79.029664702087885, 35.968188349716925 ], [ -79.030426382250539, 35.968357561194836 ], [ -79.031264954508472, 35.968543847392823 ], [ -79.033528384383359, 35.968807620270979 ], [ -79.033720739086121, 35.968833567518416 ], [ -79.034470508453865, 35.969103859344038 ], [ -79.034478484957319, 35.969104789018736 ], [ -79.035184858607366, 35.969187087367793 ], [ -79.03550976187779, 35.969323657554376 ], [ -79.037067275493811, 35.969412966084974 ], [ -79.038778882722994, 35.969306129113875 ], [ -79.041367272575286, 35.968891798991855 ], [ -79.041976726808016, 35.968704091675598 ], [ -79.042552396096525, 35.968537855337978 ], [ -79.042783834702007, 35.968450206692374 ], [ -79.04313477900962, 35.968291775526808 ], [ -79.043430819987734, 35.968157915643125 ], [ -79.044430022057682, 35.96773242528991 ], [ -79.045537354130715, 35.967312551880312 ], [ -79.04763180249131, 35.966819815067801 ], [ -79.048032653855458, 35.966794926819965 ], [ -79.048876387875538, 35.966819537750922 ], [ -79.050423957606469, 35.966864663080514 ], [ -79.051553502756761, 35.966898513212819 ], [ -79.051615708623459, 35.966908442515404 ], [ -79.052768903845205, 35.967092504596984 ], [ -79.053465206367221, 35.967347500237494 ], [ -79.054195712210458, 35.967576206996419 ], [ -79.055001824897161, 35.967792684574562 ], [ -79.055564203758308, 35.968002574131567 ], [ -79.055857429765325, 35.968101847410779 ], [ -79.056239384944604, 35.9682312955768 ], [ -79.056684924011364, 35.968382071655391 ], [ -79.057292989490918, 35.968587844671262 ], [ -79.057353989836429, 35.968608486967376 ], [ -79.057766017151224, 35.968841963042806 ], [ -79.057924454781272, 35.968884122120038 ], [ -79.058557367087587, 35.969058080648658 ], [ -79.058873800347484, 35.969113037454136 ], [ -79.059258678450263, 35.969181521849755 ], [ -79.059520611679019, 35.969224829092958 ], [ -79.059629361321058, 35.969239702186634 ], [ -79.060379906369946, 35.969342348231258 ], [ -79.060840074237746, 35.96941043798585 ], [ -79.061030933057765, 35.96943867818274 ], [ -79.062422069752714, 35.969563119033509 ], [ -79.063037771441628, 35.969857077025011 ], [ -79.06327368618318, 35.97011277602742 ], [ -79.064192479682873, 35.971188290908465 ], [ -79.064602091267233, 35.971529053445579 ], [ -79.065031941279969, 35.971817779980519 ], [ -79.065195936389586, 35.971929463242425 ], [ -79.065471488543864, 35.972080916881289 ], [ -79.065660829471867, 35.972189323275984 ], [ -79.06582229032054, 35.972299461345557 ], [ -79.066039532135903, 35.972432404826279 ], [ -79.066192113880561, 35.972530356458925 ], [ -79.066387383412831, 35.972653867585556 ], [ -79.066550955691852, 35.972760740884851 ], [ -79.066597187222129, 35.972789420607384 ], [ -79.06668451526177, 35.972843594969383 ], [ -79.066826541354871, 35.972944815099595 ], [ -79.066947008993225, 35.973032825978947 ], [ -79.067072979705543, 35.97313147965415 ], [ -79.067213328784732, 35.97324815181819 ], [ -79.067328318420508, 35.973350274890855 ], [ -79.067349030392393, 35.973364953459836 ], [ -79.067359174063185, 35.973372307731211 ], [ -79.067369321067446, 35.973379668308837 ], [ -79.067379464760023, 35.97338704420924 ], [ -79.067389610681047, 35.97339443092293 ], [ -79.067409899379228, 35.973409416150702 ], [ -79.067430189237442, 35.973424453648597 ], [ -79.06745047914535, 35.973439541614887 ], [ -79.067470347758459, 35.973454668565516 ], [ -79.067480490608162, 35.973462340078164 ], [ -79.067490636791334, 35.973470017897093 ], [ -79.067510505772375, 35.973485566640598 ], [ -79.067530373527092, 35.973500965768764 ], [ -79.067550241450817, 35.973516557767759 ], [ -79.067570109386779, 35.973532155171135 ], [ -79.067589977329646, 35.973547751669905 ], [ -79.067599700147952, 35.973555628897081 ], [ -79.067609422963599, 35.97356350071572 ], [ -79.067629292149178, 35.973579238708432 ], [ -79.067648737903454, 35.97359511302588 ], [ -79.067658461807241, 35.973602948788667 ], [ -79.067668182381254, 35.973610778243525 ], [ -79.067687628085807, 35.973626575044392 ], [ -79.067697353216261, 35.973634542390421 ], [ -79.067707073906817, 35.973642501626571 ], [ -79.067726520657402, 35.973658205588542 ], [ -79.067745543965714, 35.973674033257723 ], [ -79.06775526794064, 35.973681931200957 ], [ -79.067764988584273, 35.973689821033723 ], [ -79.067784013095135, 35.973705742429388 ], [ -79.067803036481976, 35.973721636784113 ], [ -79.067822059831613, 35.973737477960249 ], [ -79.067989295512291, 35.973865789643774 ], [ -79.068037612296351, 35.973908457339483 ], [ -79.068079817620969, 35.973947304285275 ], [ -79.068179716810718, 35.97405233165987 ], [ -79.068197050094099, 35.97406897585963 ], [ -79.068214808049859, 35.974085620720857 ], [ -79.068232142601957, 35.974102437059521 ], [ -79.068241021103901, 35.974110844659172 ], [ -79.068249899607665, 35.974119252258191 ], [ -79.068267234174314, 35.974136068591598 ], [ -79.068284568893105, 35.974153056165804 ], [ -79.068293024959502, 35.974161464899034 ], [ -79.068301481026879, 35.974169872730364 ], [ -79.068318815760122, 35.974186860299497 ], [ -79.068335729162683, 35.974203849003089 ], [ -79.068353062946741, 35.97422100781116 ], [ -79.068394921644725, 35.974263906998537 ], [ -79.068403377880173, 35.974272487868419 ], [ -79.068411834115878, 35.974281066935099 ], [ -79.068428747848202, 35.974298398111962 ], [ -79.068445238030904, 35.974315729523731 ], [ -79.068461728220697, 35.974333060933169 ], [ -79.068478217454839, 35.974350564485583 ], [ -79.068494708913732, 35.974368068034359 ], [ -79.068511199271001, 35.974385571581401 ], [ -79.068527689634607, 35.974403074224874 ], [ -79.068535723595602, 35.974411826565515 ], [ -79.068543758666294, 35.974420578003738 ], [ -79.068560248081681, 35.97443825278782 ], [ -79.068576316164908, 35.974455928707414 ], [ -79.068591962914297, 35.974473603960135 ], [ -79.068623676957912, 35.974509298512395 ], [ -79.068647356896008, 35.974536068578907 ], [ -79.06866300271416, 35.974553915967249 ], [ -79.068678648685733, 35.974571935498112 ], [ -79.068694294663615, 35.974589954125555 ], [ -79.069143379686693, 35.975104775654849 ], [ -79.069692992396014, 35.975592409551915 ], [ -79.06980592143222, 35.975745494304071 ], [ -79.069891351981838, 35.975855843330102 ], [ -79.070129676109843, 35.976405638450451 ], [ -79.070504081838962, 35.977007549457234 ], [ -79.070484516541143, 35.977338757843505 ], [ -79.070955065171177, 35.977893627997666 ], [ -79.071375159539699, 35.978388994379443 ], [ -79.072189218772778, 35.979753641897346 ], [ -79.072189683291782, 35.979753536173092 ], [ -79.072534733924314, 35.97967479604214 ], [ -79.072616178003415, 35.97974668596931 ], [ -79.072682103256739, 35.979739328364865 ], [ -79.072767605461976, 35.979741798329997 ], [ -79.072868448590171, 35.979719490121028 ], [ -79.073034346596145, 35.979655755288036 ], [ -79.073126250482602, 35.979601053015088 ], [ -79.073231854987881, 35.979587521918759 ], [ -79.07334278739539, 35.97956408066711 ], [ -79.073493774532281, 35.979482808950195 ], [ -79.073592152754102, 35.979500074105871 ], [ -79.073638656248733, 35.97939331384525 ], [ -79.07370499730682, 35.979341442138661 ], [ -79.073867575970809, 35.979285960283029 ], [ -79.074017818439856, 35.979309100703922 ], [ -79.074161256539128, 35.979319624453396 ], [ -79.074287765136958, 35.979312618530564 ], [ -79.074410054467194, 35.979274301889305 ], [ -79.074568429164643, 35.979306757711967 ] ] ] } }
]
}
